{"type": "FeatureCollection", "features": [ {"type": "Feature", "properties": {"norad_id": 32225, "name": "FENGYUN 1C DEB", "group": "fengyun-1c-debris", "lat": 78.21436813822625, "lon": -89.14162008807523, "alt_km": 845.0659273042538, "timestamp": "2025-12-17T23:38:07.139929+00:00", "meta": {"OBJECT_NAME": "FENGYUN 1C DEB", "OBJECT_ID": "1999-025CVX", "EPOCH": "2025-12-14T08:30:03.848544", "MEAN_MOTION": 14.13046821, "ECCENTRICITY": 0.00717754, "INCLINATION": 99.0923, "RA_OF_ASC_NODE": 37.0425, "ARG_OF_PERICENTER": 201.9609, "MEAN_ANOMALY": 157.8482, "EPHEMERIS_TYPE": 0, "CLASSIFICATION_TYPE": "U", "NORAD_CAT_ID": 32225, "ELEMENT_SET_NO": 999, "REV_AT_EPOCH": 68139, "BSTAR": 0.0002902606, "MEAN_MOTION_DOT": 5.09e-06, "MEAN_MOTION_DDOT": 0}, "tle": {"line1": "1 32225U 99025CVX 25348.35421121  .00000509  00000+0  29026-3 0  9995", "line2": "2 32225  99.0923  37.0425 0071775 201.9609 157.8482 14.13046821681395"}}, "geometry": {"type": "Point", "coordinates": [-89.14162008807523, 78.21436813822625]}}, {"type": "Feature", "properties": {"norad_id": 32230, "name": "FENGYUN 1C DEB", "group": "fengyun-1c-debris", "lat": 25.57195539186596, "lon": 137.64227566222715, "alt_km": 679.7482747668755, "timestamp": "2025-12-17T23:38:07.139939+00:00", "meta": {"OBJECT_NAME": "FENGYUN 1C DEB", "OBJECT_ID": "1999-025CWC", "EPOCH": "2025-12-13T09:10:06.590208", "MEAN_MOTION": 14.56150163, "ECCENTRICITY": 0.005055, "INCLINATION": 98.8706, "RA_OF_ASC_NODE": 137.0363, "ARG_OF_PERICENTER": 87.2509, "MEAN_ANOMALY": 303.0071, "EPHEMERIS_TYPE": 0, "CLASSIFICATION_TYPE": "U", "NORAD_CAT_ID": 32230, "ELEMENT_SET_NO": 999, "REV_AT_EPOCH": 60679, "BSTAR": 0.0050290882, "MEAN_MOTION_DOT": 0.00022605, "MEAN_MOTION_DDOT": 0}, "tle": {"line1": "1 32230U 99025CWC 25347.38202072  .00022605  00000+0  50291-2 0  9993", "line2": "2 32230  98.8706 137.0363 0050550  87.2509 303.0071 14.56150163606793"}}, "geometry": {"type": "Point", "coordinates": [137.64227566222715, 25.57195539186596]}}, {"type": "Feature", "properties": {"norad_id": 32234, "name": "FENGYUN 1C DEB", "group": "fengyun-1c-debris", "lat": 64.62437385936353, "lon": -177.00672548697995, "alt_km": 931.5005904513791, "timestamp": "2025-12-17T23:38:07.139949+00:00", "meta": {"OBJECT_NAME": "FENGYUN 1C DEB", "OBJECT_ID": "1999-025CWG", "EPOCH": "2025-12-14T12:38:46.497984", "MEAN_MOTION": 13.9413283, "ECCENTRICITY": 0.01374559, "INCLINATION": 98.529, "RA_OF_ASC_NODE": 198.2432, "ARG_OF_PERICENTER": 331.2039, "MEAN_ANOMALY": 28.1585, "EPHEMERIS_TYPE": 0, "CLASSIFICATION_TYPE": "U", "NORAD_CAT_ID": 32234, "ELEMENT_SET_NO": 999, "REV_AT_EPOCH": 93234, "BSTAR": 0.0014985343, "MEAN_MOTION_DOT": 2.108e-05, "MEAN_MOTION_DDOT": 0}, "tle": {"line1": "1 32234U 99025CWG 25348.52692706  .00002108  00000+0  14985-2 0  9997", "line2": "2 32234  98.5290 198.2432 0137455 331.2039  28.1585 13.94132830932348"}}, "geometry": {"type": "Point", "coordinates": [-177.00672548697995, 64.62437385936353]}}, {"type": "Feature", "properties": {"norad_id": 32241, "name": "FENGYUN 1C DEB", "group": "fengyun-1c-debris", "lat": 31.884230772492558, "lon": 15.944980110830112, "alt_km": 898.766189352993, "timestamp": "2025-12-17T23:38:07.139960+00:00", "meta": {"OBJECT_NAME": "FENGYUN 1C DEB", "OBJECT_ID": "1999-025CWP", "EPOCH": "2025-12-17T08:21:13.096800", "MEAN_MOTION": 14.28778702, "ECCENTRICITY": 0.01465119, "INCLINATION": 99.0771, "RA_OF_ASC_NODE": 20.9898, "ARG_OF_PERICENTER": 210.2379, "MEAN_ANOMALY": 149.0287, "EPHEMERIS_TYPE": 0, "CLASSIFICATION_TYPE": "U", "NORAD_CAT_ID": 32241, "ELEMENT_SET_NO": 999, "REV_AT_EPOCH": 93889, "BSTAR": 0.0010923987, "MEAN_MOTION_DOT": 3.039e-05, "MEAN_MOTION_DDOT": 0}, "tle": {"line1": "1 32241U 99025CWP 25351.34806825  .00003039  00000+0  10924-2 0  9991", "line2": "2 32241  99.0771  20.9898 0146511 210.2379 149.0287 14.28778702938899"}}, "geometry": {"type": "Point", "coordinates": [15.944980110830112, 31.884230772492558]}}, {"type": "Feature", "properties": {"norad_id": 32243, "name": "FENGYUN 1C DEB", "group": "fengyun-1c-debris", "lat": -63.18199335416721, "lon": 179.43370570283062, "alt_km": 1022.1214221106411, "timestamp": "2025-12-17T23:38:07.139970+00:00", "meta": {"OBJECT_NAME": "FENGYUN 1C DEB", "OBJECT_ID": "1999-025CWR", "EPOCH": "2025-12-16T19:08:46.301568", "MEAN_MOTION": 14.04634248, "ECCENTRICITY": 0.02692873, "INCLINATION": 98.2679, "RA_OF_ASC_NODE": 15.0665, "ARG_OF_PERICENTER": 112.0478, "MEAN_ANOMALY": 250.9525, "EPHEMERIS_TYPE": 0, "CLASSIFICATION_TYPE": "U", "NORAD_CAT_ID": 32243, "ELEMENT_SET_NO": 999, "REV_AT_EPOCH": 93645, "BSTAR": 0.0016264779, "MEAN_MOTION_DOT": 3.562e-05, "MEAN_MOTION_DDOT": 0}, "tle": {"line1": "1 32243U 99025CWR 25350.79775812  .00003562  00000+0  16265-2 0  9997", "line2": "2 32243  98.2679  15.0665 0269287 112.0478 250.9525 14.04634248936458"}}, "geometry": {"type": "Point", "coordinates": [179.43370570283062, -63.18199335416721]}}, {"type": "Feature", "properties": {"norad_id": 32245, "name": "FENGYUN 1C DEB", "group": "fengyun-1c-debris", "lat": 74.82765297642463, "lon": 154.24307538579285, "alt_km": 656.63071774523, "timestamp": "2025-12-17T23:38:07.139980+00:00", "meta": {"OBJECT_NAME": "FENGYUN 1C DEB", "OBJECT_ID": "1999-025CWT", "EPOCH": "2025-12-16T06:38:31.473888", "MEAN_MOTION": 14.77030772, "ECCENTRICITY": 0.0097149, "INCLINATION": 98.6547, "RA_OF_ASC_NODE": 186.5841, "ARG_OF_PERICENTER": 330.7675, "MEAN_ANOMALY": 28.8116, "EPHEMERIS_TYPE": 0, "CLASSIFICATION_TYPE": "U", "NORAD_CAT_ID": 32245, "ELEMENT_SET_NO": 999, "REV_AT_EPOCH": 66158, "BSTAR": 0.00082943136, "MEAN_MOTION_DOT": 6.263e-05, "MEAN_MOTION_DDOT": 0}, "tle": {"line1": "1 32245U 99025CWT 25350.27675317  .00006263  00000+0  82943-3 0  9999", "line2": "2 32245  98.6547 186.5841 0097149 330.7675  28.8116 14.77030772661581"}}, "geometry": {"type": "Point", "coordinates": [154.24307538579285, 74.82765297642463]}}, {"type": "Feature", "properties": {"norad_id": 32304, "name": "FENGYUN 1C DEB", "group": "fengyun-1c-debris", "lat": -59.81629951630815, "lon": -36.311344635081035, "alt_km": 728.7942344186695, "timestamp": "2025-12-17T23:38:07.139990+00:00", "meta": {"OBJECT_NAME": "FENGYUN 1C DEB", "OBJECT_ID": "1999-025CWV", "EPOCH": "2025-12-03T02:19:20.087328", "MEAN_MOTION": 14.50391603, "ECCENTRICITY": 0.00495576, "INCLINATION": 99.3949, "RA_OF_ASC_NODE": 290.5539, "ARG_OF_PERICENTER": 255.7789, "MEAN_ANOMALY": 103.7894, "EPHEMERIS_TYPE": 0, "CLASSIFICATION_TYPE": "U", "NORAD_CAT_ID": 32304, "ELEMENT_SET_NO": 999, "REV_AT_EPOCH": 56133, "BSTAR": 0.0019806873, "MEAN_MOTION_DOT": 7.809e-05, "MEAN_MOTION_DDOT": 0}, "tle": {"line1": "1 32304U 99025CWV 25337.09676027  .00007809  00000+0  19807-2 0  9994", "line2": "2 32304  99.3949 290.5539 0049557 255.7789 103.7894 14.50391603561335"}}, "geometry": {"type": "Point", "coordinates": [-36.311344635081035, -59.81629951630815]}}, {"type": "Feature", "properties": {"norad_id": 32308, "name": "FENGYUN 1C DEB", "group": "fengyun-1c-debris", "lat": 69.38493800024888, "lon": 22.848229778036778, "alt_km": 796.6986516780598, "timestamp": "2025-12-17T23:38:07.140001+00:00", "meta": {"OBJECT_NAME": "FENGYUN 1C DEB", "OBJECT_ID": "1999-025CWZ", "EPOCH": "2025-12-16T02:53:05.368992", "MEAN_MOTION": 14.05517039, "ECCENTRICITY": 0.0108589, "INCLINATION": 97.7747, "RA_OF_ASC_NODE": 42.543, "ARG_OF_PERICENTER": 50.8361, "MEAN_ANOMALY": 310.2397, "EPHEMERIS_TYPE": 0, "CLASSIFICATION_TYPE": "U", "NORAD_CAT_ID": 32308, "ELEMENT_SET_NO": 999, "REV_AT_EPOCH": 65459, "BSTAR": 0.0011044749, "MEAN_MOTION_DOT": 1.859e-05, "MEAN_MOTION_DDOT": 0}, "tle": {"line1": "1 32308U 99025CWZ 25350.12020103  .00001859  00000+0  11045-2 0  9990", "line2": "2 32308  97.7747  42.5430 0108589  50.8361 310.2397 14.05517039654590"}}, "geometry": {"type": "Point", "coordinates": [22.848229778036778, 69.38493800024888]}}, {"type": "Feature", "properties": {"norad_id": 32314, "name": "FENGYUN 1C DEB", "group": "fengyun-1c-debris", "lat": -65.47676449224114, "lon": -102.43506355511646, "alt_km": 664.3742110983185, "timestamp": "2025-12-17T23:38:07.140011+00:00", "meta": {"OBJECT_NAME": "FENGYUN 1C DEB", "OBJECT_ID": "1999-025CXF", "EPOCH": "2025-12-09T13:16:04.145664", "MEAN_MOTION": 14.79358552, "ECCENTRICITY": 0.0149391, "INCLINATION": 98.8627, "RA_OF_ASC_NODE": 88.2704, "ARG_OF_PERICENTER": 167.7932, "MEAN_ANOMALY": 192.6962, "EPHEMERIS_TYPE": 0, "CLASSIFICATION_TYPE": "U", "NORAD_CAT_ID": 32314, "ELEMENT_SET_NO": 999, "REV_AT_EPOCH": 97383, "BSTAR": 0.0023179, "MEAN_MOTION_DOT": 0.00020854, "MEAN_MOTION_DDOT": 0}, "tle": {"line1": "1 32314U 99025CXF 25343.55282576  .00020854  00000+0  23179-2 0  9997", "line2": "2 32314  98.8627  88.2704 0149391 167.7932 192.6962 14.79358552973830"}}, "geometry": {"type": "Point", "coordinates": [-102.43506355511646, -65.47676449224114]}}, {"type": "Feature", "properties": {"norad_id": 32315, "name": "FENGYUN 1C DEB", "group": "fengyun-1c-debris", "lat": -8.438664345926192, "lon": 137.35662137902403, "alt_km": 1071.8605304570283, "timestamp": "2025-12-17T23:38:07.140021+00:00", "meta": {"OBJECT_NAME": "FENGYUN 1C DEB", "OBJECT_ID": "1999-025CXG", "EPOCH": "2025-11-20T16:04:27.676128", "MEAN_MOTION": 13.66155502, "ECCENTRICITY": 0.02289149, "INCLINATION": 100.8052, "RA_OF_ASC_NODE": 105.2905, "ARG_OF_PERICENTER": 168.6, "MEAN_ANOMALY": 192.0449, "EPHEMERIS_TYPE": 0, "CLASSIFICATION_TYPE": "U", "NORAD_CAT_ID": 32315, "ELEMENT_SET_NO": 999, "REV_AT_EPOCH": 60787, "BSTAR": 0.00024184327, "MEAN_MOTION_DOT": 1.85e-06, "MEAN_MOTION_DDOT": 0}, "tle": {"line1": "1 32315U 99025CXG 25324.66976477  .00000185  00000+0  24184-3 0  9992", "line2": "2 32315 100.8052 105.2905 0228914 168.6000 192.0449 13.66155502607872"}}, "geometry": {"type": "Point", "coordinates": [137.35662137902403, -8.438664345926192]}}]}